CCSDS_OMM_VERS = 2.0
CREATION_DATE  = 
ORIGINATOR     = 

OBJECT_NAME    = STARLINK-35915
OBJECT_ID      = 2025-265F
CENTER_NAME    = EARTH
REF_FRAME      = TEME
TIME_SYSTEM    = UTC
MEAN_ELEMENT_THEORY = SGP/SGP4

EPOCH          = 2025-11-30T22:00:03.000096
MEAN_MOTION    = 15.77862018
ECCENTRICITY   = .00016371
INCLINATION    = 42.9995
RA_OF_ASC_NODE = 124.4947
ARG_OF_PERICENTER = 286.9358
MEAN_ANOMALY   = 192.6508

EPHEMERIS_TYPE = 0
CLASSIFICATION_TYPE = U
NORAD_CAT_ID   = 66521
ELEMENT_SET_NO = 999
REV_AT_EPOCH   = 309
BSTAR          = -.87488641E-2
MEAN_MOTION_DOT = -.1358294E-1
MEAN_MOTION_DDOT = 0

CCSDS_OMM_VERS = 2.0
CREATION_DATE  = 
ORIGINATOR     = 

OBJECT_NAME    = STARLINK-35946
OBJECT_ID      = 2025-265G
CENTER_NAME    = EARTH
REF_FRAME      = TEME
TIME_SYSTEM    = UTC
MEAN_ELEMENT_THEORY = SGP/SGP4

EPOCH          = 2025-11-30T22:00:03.000096
MEAN_MOTION    = 15.77804344
ECCENTRICITY   = .00017403
INCLINATION    = 42.9996
RA_OF_ASC_NODE = 124.4894
ARG_OF_PERICENTER = 284.3325
MEAN_ANOMALY   = 197.4080

EPHEMERIS_TYPE = 0
CLASSIFICATION_TYPE = U
NORAD_CAT_ID   = 66522
ELEMENT_SET_NO = 999
REV_AT_EPOCH   = 309
BSTAR          = -.88284567E-2
MEAN_MOTION_DOT = -.136618E-1
MEAN_MOTION_DDOT = 0

CCSDS_OMM_VERS = 2.0
CREATION_DATE  = 
ORIGINATOR     = 

OBJECT_NAME    = STARLINK-35969
OBJECT_ID      = 2025-265H
CENTER_NAME    = EARTH
REF_FRAME      = TEME
TIME_SYSTEM    = UTC
MEAN_ELEMENT_THEORY = SGP/SGP4

EPOCH          = 2025-11-30T22:00:03.000096
MEAN_MOTION    = 15.77771368
ECCENTRICITY   = .00016748
INCLINATION    = 42.9997
RA_OF_ASC_NODE = 124.4841
ARG_OF_PERICENTER = 283.3391
MEAN_ANOMALY   = 200.4899

EPHEMERIS_TYPE = 0
CLASSIFICATION_TYPE = U
NORAD_CAT_ID   = 66523
ELEMENT_SET_NO = 999
REV_AT_EPOCH   = 309
BSTAR          = -.89907891E-2
MEAN_MOTION_DOT = -.138664E-1
MEAN_MOTION_DDOT = 0

CCSDS_OMM_VERS = 2.0
CREATION_DATE  = 
ORIGINATOR     = 

OBJECT_NAME    = STARLINK-35687
OBJECT_ID      = 2025-265J
CENTER_NAME    = EARTH
REF_FRAME      = TEME
TIME_SYSTEM    = UTC
MEAN_ELEMENT_THEORY = SGP/SGP4

EPOCH          = 2025-11-30T22:00:03.000096
MEAN_MOTION    = 15.77730700
ECCENTRICITY   = .00016552
INCLINATION    = 42.9995
RA_OF_ASC_NODE = 124.4785
ARG_OF_PERICENTER = 284.7032
MEAN_ANOMALY   = 201.2390

EPHEMERIS_TYPE = 0
CLASSIFICATION_TYPE = U
NORAD_CAT_ID   = 66524
ELEMENT_SET_NO = 999
REV_AT_EPOCH   = 309
BSTAR          = -.91861166E-2
MEAN_MOTION_DOT = -.1411047E-1
MEAN_MOTION_DDOT = 0

CCSDS_OMM_VERS = 2.0
CREATION_DATE  = 
ORIGINATOR     = 

OBJECT_NAME    = STARLINK-35975
OBJECT_ID      = 2025-265K
CENTER_NAME    = EARTH
REF_FRAME      = TEME
TIME_SYSTEM    = UTC
MEAN_ELEMENT_THEORY = SGP/SGP4

EPOCH          = 2025-11-30T22:00:03.000096
MEAN_MOTION    = 15.77713210
ECCENTRICITY   = .00015927
INCLINATION    = 42.9996
RA_OF_ASC_NODE = 124.4738
ARG_OF_PERICENTER = 282.3065
MEAN_ANOMALY   = 205.6532

EPHEMERIS_TYPE = 0
CLASSIFICATION_TYPE = U
NORAD_CAT_ID   = 66525
ELEMENT_SET_NO = 999
REV_AT_EPOCH   = 309
BSTAR          = -.93287276E-2
MEAN_MOTION_DOT = -.1429402E-1
MEAN_MOTION_DDOT = 0

CCSDS_OMM_VERS = 2.0
CREATION_DATE  = 
ORIGINATOR     = 

OBJECT_NAME    = STARLINK-35932
OBJECT_ID      = 2025-265L
CENTER_NAME    = EARTH
REF_FRAME      = TEME
TIME_SYSTEM    = UTC
MEAN_ELEMENT_THEORY = SGP/SGP4

EPOCH          = 2025-11-30T22:00:03.000096
MEAN_MOTION    = 15.77673475
ECCENTRICITY   = .00015502
INCLINATION    = 42.9996
RA_OF_ASC_NODE = 124.4685
ARG_OF_PERICENTER = 285.9285
MEAN_ANOMALY   = 204.1296

EPHEMERIS_TYPE = 0
CLASSIFICATION_TYPE = U
NORAD_CAT_ID   = 66526
ELEMENT_SET_NO = 999
REV_AT_EPOCH   = 298
BSTAR          = -.95501005E-2
MEAN_MOTION_DOT = -.1457005E-1
MEAN_MOTION_DDOT = 0

CCSDS_OMM_VERS = 2.0
CREATION_DATE  = 
ORIGINATOR     = 

OBJECT_NAME    = STARLINK-35935
OBJECT_ID      = 2025-265M
CENTER_NAME    = EARTH
REF_FRAME      = TEME
TIME_SYSTEM    = UTC
MEAN_ELEMENT_THEORY = SGP/SGP4

EPOCH          = 2025-11-30T22:00:03.000096
MEAN_MOTION    = 15.77619553
ECCENTRICITY   = .00015169
INCLINATION    = 42.9998
RA_OF_ASC_NODE = 124.4636
ARG_OF_PERICENTER = 288.7527
MEAN_ANOMALY   = 203.4133

EPHEMERIS_TYPE = 0
CLASSIFICATION_TYPE = U
NORAD_CAT_ID   = 66527
ELEMENT_SET_NO = 999
REV_AT_EPOCH   = 309
BSTAR          = -.96850398E-2
MEAN_MOTION_DOT = -.1471954E-1
MEAN_MOTION_DDOT = 0

CCSDS_OMM_VERS = 2.0
CREATION_DATE  = 
ORIGINATOR     = 

OBJECT_NAME    = STARLINK-35928
OBJECT_ID      = 2025-265N
CENTER_NAME    = EARTH
REF_FRAME      = TEME
TIME_SYSTEM    = UTC
MEAN_ELEMENT_THEORY = SGP/SGP4

EPOCH          = 2025-11-30T22:00:03.000096
MEAN_MOTION    = 15.77566139
ECCENTRICITY   = .00014671
INCLINATION    = 42.9998
RA_OF_ASC_NODE = 124.4581
ARG_OF_PERICENTER = 287.9722
MEAN_ANOMALY   = 206.2872

EPHEMERIS_TYPE = 0
CLASSIFICATION_TYPE = U
NORAD_CAT_ID   = 66528
ELEMENT_SET_NO = 999
REV_AT_EPOCH   = 309
BSTAR          = -.9796444E-2
MEAN_MOTION_DOT = -.148366E-1
MEAN_MOTION_DDOT = 0

CCSDS_OMM_VERS = 2.0
CREATION_DATE  = 
ORIGINATOR     = 

OBJECT_NAME    = STARLINK-35933
OBJECT_ID      = 2025-265P
CENTER_NAME    = EARTH
REF_FRAME      = TEME
TIME_SYSTEM    = UTC
MEAN_ELEMENT_THEORY = SGP/SGP4

EPOCH          = 2025-11-30T22:00:03.000096
MEAN_MOTION    = 15.77501874
ECCENTRICITY   = .00014907
INCLINATION    = 42.9997
RA_OF_ASC_NODE = 124.4525
ARG_OF_PERICENTER = 288.0951
MEAN_ANOMALY   = 208.2859

EPHEMERIS_TYPE = 0
CLASSIFICATION_TYPE = U
NORAD_CAT_ID   = 66529
ELEMENT_SET_NO = 999
REV_AT_EPOCH   = 309
BSTAR          = -.99285607E-2
MEAN_MOTION_DOT = -.1497425E-1
MEAN_MOTION_DDOT = 0

CCSDS_OMM_VERS = 2.0
CREATION_DATE  = 
ORIGINATOR     = 

OBJECT_NAME    = STARLINK-35961
OBJECT_ID      = 2025-265Q
CENTER_NAME    = EARTH
REF_FRAME      = TEME
TIME_SYSTEM    = UTC
MEAN_ELEMENT_THEORY = SGP/SGP4

EPOCH          = 2025-11-30T22:00:03.000096
MEAN_MOTION    = 15.77486263
ECCENTRICITY   = .00015394
INCLINATION    = 42.9997
RA_OF_ASC_NODE = 124.4476
ARG_OF_PERICENTER = 284.1080
MEAN_ANOMALY   = 214.2523

EPHEMERIS_TYPE = 0
CLASSIFICATION_TYPE = U
NORAD_CAT_ID   = 66530
ELEMENT_SET_NO = 999
REV_AT_EPOCH   = 309
BSTAR          = -.10017077E-1
MEAN_MOTION_DOT = -.1508243E-1
MEAN_MOTION_DDOT = 0

CCSDS_OMM_VERS = 2.0
CREATION_DATE  = 
ORIGINATOR     = 

OBJECT_NAME    = STARLINK-35960
OBJECT_ID      = 2025-265R
CENTER_NAME    = EARTH
REF_FRAME      = TEME
TIME_SYSTEM    = UTC
MEAN_ELEMENT_THEORY = SGP/SGP4

EPOCH          = 2025-11-30T22:00:03.000096
MEAN_MOTION    = 15.77342256
ECCENTRICITY   = .00010054
INCLINATION    = 42.9997
RA_OF_ASC_NODE = 124.4421
ARG_OF_PERICENTER = 254.2305
MEAN_ANOMALY   = 246.2116

EPHEMERIS_TYPE = 0
CLASSIFICATION_TYPE = U
NORAD_CAT_ID   = 66531
ELEMENT_SET_NO = 999
REV_AT_EPOCH   = 309
BSTAR          = -.91909982E-2
MEAN_MOTION_DOT = -.138948E-1
MEAN_MOTION_DDOT = 0

CCSDS_OMM_VERS = 2.0
CREATION_DATE  = 
ORIGINATOR     = 

OBJECT_NAME    = STARLINK-35914
OBJECT_ID      = 2025-265S
CENTER_NAME    = EARTH
REF_FRAME      = TEME
TIME_SYSTEM    = UTC
MEAN_ELEMENT_THEORY = SGP/SGP4

EPOCH          = 2025-11-30T22:00:03.000096
MEAN_MOTION    = 15.77405738
ECCENTRICITY   = .0001464
INCLINATION    = 42.9996
RA_OF_ASC_NODE = 124.4374
ARG_OF_PERICENTER = 284.6656
MEAN_ANOMALY   = 217.7649

EPHEMERIS_TYPE = 0
CLASSIFICATION_TYPE = U
NORAD_CAT_ID   = 66532
ELEMENT_SET_NO = 999
REV_AT_EPOCH   = 309
BSTAR          = -.10146005E-1
MEAN_MOTION_DOT = -.152034E-1
MEAN_MOTION_DDOT = 0

