STARLINK-35915          
1 66521U 25265F   25334.91670139 -.01358294  00000+0 -87489-2 0  9994
2 66521  42.9995 124.4947 0001637 286.9358 192.6508 15.77862018  3097
STARLINK-35946          
1 66522U 25265G   25334.91670139 -.01366180  00000+0 -88285-2 0  9993
2 66522  42.9996 124.4894 0001740 284.3325 197.4080 15.77804344  3097
STARLINK-35969          
1 66523U 25265H   25334.91670139 -.01386640  00000+0 -89908-2 0  9990
2 66523  42.9997 124.4841 0001674 283.3391 200.4899 15.77771368  3091
STARLINK-35687          
1 66524U 25265J   25334.91670139 -.01411047  00000+0 -91861-2 0  9992
2 66524  42.9995 124.4785 0001655 284.7032 201.2390 15.77730700  3093
STARLINK-35975          
1 66525U 25265K   25334.91670139 -.01429402  00000+0 -93287-2 0  9991
2 66525  42.9996 124.4738 0001592 282.3065 205.6532 15.77713210  3096
STARLINK-35932          
1 66526U 25265L   25334.91670139 -.01457005  00000+0 -95501-2 0  9993
2 66526  42.9996 124.4685 0001550 285.9285 204.1296 15.77673475  2981
STARLINK-35935          
1 66527U 25265M   25334.91670139 -.01471954  00000+0 -96850-2 0  9991
2 66527  42.9998 124.4636 0001516 288.7527 203.4133 15.77619553  3094
STARLINK-35928          
1 66528U 25265N   25334.91670139 -.01483660  00000+0 -97964-2 0  9996
2 66528  42.9998 124.4581 0001467 287.9722 206.2872 15.77566139  3099
STARLINK-35933          
1 66529U 25265P   25334.91670139 -.01497425  00000+0 -99286-2 0  9990
2 66529  42.9997 124.4525 0001490 288.0951 208.2859 15.77501874  3091
STARLINK-35961          
1 66530U 25265Q   25334.91670139 -.01508243  00000+0 -10017-1 0  9997
2 66530  42.9997 124.4476 0001539 284.1080 214.2523 15.77486263  3091
STARLINK-35960          
1 66531U 25265R   25334.91670139 -.01389480  00000+0 -91910-2 0  9990
2 66531  42.9997 124.4421 0001005 254.2305 246.2116 15.77342256  3094
STARLINK-35914          
1 66532U 25265S   25334.91670139 -.01520340  00000+0 -10146-1 0  9994
2 66532  42.9996 124.4374 0001464 284.6656 217.7649 15.77405738  3095
